{"epoch":1784762836,"count":18316,"objects":[{"id":"38867","name":"INTELSAT 23","type":"PAYLOAD","l1":"1 38867U 12057A   26203.46127413 -.00000281  00000-0  00000-0 0  9990","l2":"2 38867   0.0271 289.5516 0000213 252.9430 230.7617  1.00269569 50303"},{"id":"39360","name":"SIRIUS FM-6","type":"PAYLOAD","l1":"1 39360U 13058A   26203.44870740 -.00000012  00000-0  00000-0 0  9999","l2":"2 39360   0.0098  24.8816 0001335 153.8573 166.6213  1.00270116 46422"},{"id":"40271","name":"INTELSAT 30","type":"PAYLOAD","l1":"1 40271U 14062A   26203.55744205 -.00000147  00000-0  00000-0 0  9995","l2":"2 40271   0.0173  55.7632 0001612 343.7500   6.4155  1.00270595  7149"},{"id":"40333","name":"DIRECTV 14","type":"PAYLOAD","l1":"1 40333U 14078B   26203.30948794 -.00000123  00000-0  00000-0 0  9997","l2":"2 40333   0.0120  51.8970 0000678 355.3666 264.9677  1.00274896 42399"},{"id":"40663","name":"DIRECTV 15","type":"PAYLOAD","l1":"1 40663U 15026A   26203.45139407 -.00000099  00000-0  00000-0 0  9998","l2":"2 40663   0.0213  79.4820 0000670 295.6184 344.7143  1.00274904 40811"},{"id":"40664","name":"SKY MEXICO-1","type":"PAYLOAD","l1":"1 40664U 15026B   26203.45616076 -.00000231  00000-0  00000-0 0  9999","l2":"2 40664   0.0162 311.1102 0002709 183.6480 250.8562  1.00270581 40802"},{"id":"40874","name":"INTELSAT 34","type":"PAYLOAD","l1":"1 40874U 15039A   26203.46075413 -.00000282  00000-0  00000-0 0  9997","l2":"2 40874   0.0090 359.5645 0000592  40.3887  10.6325  1.00270805 39986"},{"id":"41581","name":"INTELSAT 31","type":"PAYLOAD","l1":"1 41581U 16035A   26203.59934381 -.00000147  00000-0  00000-0 0  9992","l2":"2 41581   0.0102 300.0384 0000916  13.2658 107.7498  1.00271008 37031"},{"id":"41747","name":"INTELSAT 36","type":"PAYLOAD","l1":"1 41747U 16053A   26203.48528090 -.00000021  00000-0  00000-0 0  9991","l2":"2 41747   0.0107  34.3326 0002371 316.1537 192.9369  1.00272192 36319"},{"id":"41945","name":"INTELSAT 32E","type":"PAYLOAD","l1":"1 41945U 17007B   26203.46318081 -.00000266  00000-0  00000-0 0  9997","l2":"2 41945   0.0133  39.0030 0000524  12.0362  12.7220  1.00269870 34578"},{"id":"42818","name":"INTELSAT 35E","type":"PAYLOAD","l1":"1 42818U 17041A   26203.46491414 -.00000235  00000-0  00000-0 0  9993","l2":"2 42818   0.0194  60.7926 0002104  57.5551 314.7329  1.00271724 33160"},{"id":"42950","name":"INTELSAT 37E","type":"PAYLOAD","l1":"1 42950U 17059A   26203.32560802 -.00000137  00000-0  00000-0 0  9993","l2":"2 42950   0.0159  72.2000 0002900  52.8079 274.2842  1.00272528 32416"},{"id":"43632","name":"AZERSPACE 2/INTELSAT 38","type":"PAYLOAD","l1":"1 43632U 18074A   26203.26678006  .00000140  00000-0  00000-0 0  9991","l2":"2 43632   0.0195  53.3468 0001477  64.7486 323.0693  1.00272744 28797"},{"id":"43633","name":"HORIZONS 3E","type":"PAYLOAD","l1":"1 43633U 18074B   26203.53308565 -.00000027  00000-0  00000-0 0  9997","l2":"2 43633   0.0349 234.9691 0000417  74.8803 351.3246  1.00271998 28699"},{"id":"44333","name":"AT&T T-16","type":"PAYLOAD","l1":"1 44333U 19034A   26203.43169936 -.00000112  00000-0  00000-0 0  9993","l2":"2 44333   0.0150  76.7135 0000789 295.4313 342.5786  1.00271093 25987"},{"id":"44476","name":"INTELSAT 39","type":"PAYLOAD","l1":"1 44476U 19049B   26203.48398090  .00000037  00000-0  00000-0 0  9992","l2":"2 44476   0.0137  38.0141 0000920 323.6232 174.7658  1.00271381 25487"},{"id":"46114","name":"GALAXY 30","type":"PAYLOAD","l1":"1 46114U 20056C   26203.50461384  .00000041  00000-0  00000-0 0  9998","l2":"2 46114   0.0150  70.1395 0002230  47.1977 239.5623  1.00271306 21644"},{"id":"54026","name":"GALAXY 33","type":"PAYLOAD","l1":"1 54026U 22128A   26202.73259257  .00000081  00000-0  00000-0 0  9993","l2":"2 54026   0.0119 334.1596 0001850 148.5438 307.5206  1.00276179 14087"},{"id":"54027","name":"GALAXY 34","type":"PAYLOAD","l1":"1 54027U 22128B   26203.30359458  .00000062  00000-0  00000-0 0  9991","l2":"2 54027   0.0127  43.6550 0001827  84.8497 151.8375  1.00270200 14266"},{"id":"54243","name":"GALAXY 31","type":"PAYLOAD","l1":"1 54243U 22153A   26203.44775406  .00000000  00000-0  00000-0 0  9991","l2":"2 54243   0.0144  62.8357 0001423  61.8382 215.7174  1.00272359  7483"},{"id":"54244","name":"GALAXY 32","type":"PAYLOAD","l1":"1 54244U 22153B   26203.31113462 -.00000171  00000-0  00000-0 0  9996","l2":"2 54244   0.0066  32.1363 0001457  24.5284 264.4045  1.00271630 13495"},{"id":"54741","name":"GALAXY 35","type":"PAYLOAD","l1":"1 54741U 22170A   26203.45330075 -.00000159  00000-0  00000-0 0  9999","l2":"2 54741   0.0058 216.8066 0002070 262.3974 251.0732  1.00271612 13247"},{"id":"54742","name":"GALAXY 36","type":"PAYLOAD","l1":"1 54742U 22170B   26203.45408075 -.00000182  00000-0  00000-0 0  9992","l2":"2 54742   0.0217 127.3830 0002732 333.4284 273.8549  1.00272129 13128"},{"id":"57493","name":"GALAXY 37","type":"PAYLOAD","l1":"1 57493U 23112A   26203.50461384  .00000051  00000-0  00000-0 0  9997","l2":"2 57493   0.0164  64.1564 0002123  54.0556 236.6985  1.00273228 10892"}]}