OBJECT_NAME,OBJECT_ID,EPOCH,MEAN_MOTION,ECCENTRICITY,INCLINATION,RA_OF_ASC_NODE,ARG_OF_PERICENTER,MEAN_ANOMALY,EPHEMERIS_TYPE,CLASSIFICATION_TYPE,NORAD_CAT_ID,ELEMENT_SET_NO,REV_AT_EPOCH,BSTAR,MEAN_MOTION_DOT,MEAN_MOTION_DDOT
INTELSAT 23 (IS-23),2012-057A,2026-07-22T11:04:14.084832,1.00269569,.00002132,0.0271,289.5516,252.9430,230.7617,0,U,38867,999,5030,0,-.281E-5,0
FM-6,2013-058A,2026-07-22T10:46:08.319360,1.00270116,.00013347,0.0098,24.8816,153.8573,166.6213,0,U,39360,999,4642,0,-.12E-6,0
INTELSAT 30 (IS-30),2014-062A,2026-07-22T13:22:42.993120,1.00270595,.00016116,0.0173,55.7632,343.7500,6.4155,0,U,40271,999,714,0,-.147E-5,0
DIRECTV 14,2014-078B,2026-07-22T07:25:39.758016,1.00274896,.00006782,0.0120,51.8970,355.3666,264.9677,0,U,40333,999,4239,0,-.123E-5,0
DIRECTV 15,2015-026A,2026-07-22T10:50:00.447648,1.00274904,.00006697,0.0213,79.4820,295.6184,344.7143,0,U,40663,999,4081,0,-.99E-6,0
SKY MEXICO-1,2015-026B,2026-07-22T10:56:52.289664,1.00270581,.00027094,0.0162,311.1102,183.6480,250.8562,0,U,40664,999,4080,0,-.231E-5,0
INTELSAT 34 (IS-34),2015-039A,2026-07-22T11:03:29.156832,1.00270805,.00005924,0.0090,359.5645,40.3887,10.6325,0,U,40874,999,3998,0,-.282E-5,0
INTELSAT 31 (IS-31),2016-035A,2026-07-22T14:23:03.305184,1.00271008,.00009165,0.0102,300.0384,13.2658,107.7498,0,U,41581,999,3703,0,-.147E-5,0
INTELSAT 36 (IS-36),2016-053A,2026-07-22T11:38:48.269760,1.00272192,.00023709,0.0107,34.3326,316.1537,192.9369,0,U,41747,999,3631,0,-.21E-6,0
INTELSAT 32E (IS-32E),2017-007B,2026-07-22T11:06:58.821984,1.00269870,.00005243,0.0133,39.0030,12.0362,12.7220,0,U,41945,999,3457,0,-.266E-5,0
INTELSAT 35E (IS-35E),2017-041A,2026-07-22T11:09:28.581696,1.00271724,.00021043,0.0194,60.7926,57.5551,314.7329,0,U,42818,999,3316,0,-.235E-5,0
INTELSAT 37E (IS-37E),2017-059A,2026-07-22T07:48:52.532928,1.00272528,.00028999,0.0159,72.2000,52.8079,274.2842,0,U,42950,999,3241,0,-.137E-5,0
AZERSPACE 2 (IS-38),2018-074A,2026-07-22T06:24:09.797184,1.00272744,.00014774,0.0195,53.3468,64.7486,323.0693,0,U,43632,999,2879,0,.14E-5,0
HORIZONS-3E,2018-074B,2026-07-22T12:47:38.600160,1.00271998,.00004174,0.0349,234.9691,74.8803,351.3246,0,U,43633,999,2869,0,-.27E-6,0
AT&T T-16,2019-034A,2026-07-22T10:21:38.824704,1.00271093,.00007889,0.0150,76.7135,295.4313,342.5786,0,U,44333,999,2598,0,-.112E-5,0
INTELSAT 39 (IS-39),2019-049B,2026-07-22T11:36:55.949760,1.00271381,.000092,0.0137,38.0141,323.6232,174.7658,0,U,44476,999,2548,0,.37E-6,0
GALAXY 30 (G-30),2020-056C,2026-07-22T12:06:38.635776,1.00271306,.00022295,0.0150,70.1395,47.1977,239.5623,0,U,46114,999,2164,0,.41E-6,0
GALAXY 33 (G-33),2022-128A,2026-07-21T17:34:55.998048,1.00276179,.000185,0.0119,334.1596,148.5438,307.5206,0,U,54026,999,1408,0,.81E-6,0
GALAXY 34 (G-34),2022-128B,2026-07-22T07:17:10.571712,1.00270200,.00018275,0.0127,43.6550,84.8497,151.8375,0,U,54027,999,1426,0,.62E-6,0
GALAXY 31 (G-31),2022-153A,2026-07-22T10:44:45.950784,1.00272359,.00014232,0.0144,62.8357,61.8382,215.7174,0,U,54243,999,748,0,0,0
GALAXY 32 (G-32),2022-153B,2026-07-22T07:28:02.031168,1.00271630,.00014568,0.0066,32.1363,24.5284,264.4045,0,U,54244,999,1349,0,-.171E-5,0
GALAXY 35 (G-35),2022-170A,2026-07-22T10:52:45.184800,1.00271612,.00020696,0.0058,216.8066,262.3974,251.0732,0,U,54741,999,1324,0,-.159E-5,0
GALAXY 36 (G-36),2022-170B,2026-07-22T10:53:52.576800,1.00272129,.00027319,0.0217,127.3830,333.4284,273.8549,0,U,54742,999,1312,0,-.182E-5,0
GALAXY 37 (G-37),2023-112A,2026-07-22T12:06:38.635776,1.00273228,.00021229,0.0164,64.1564,54.0556,236.6985,0,U,57493,999,1089,0,.51E-6,0
